FENGYUN 3C              
1 39260U 13052A   23240.38537867  .00000123  00000+0  83075-4 0  9991
2 39260  98.4292 250.6626 0012352  94.5212 265.7374 14.16068477513758
CASSIOPE                
1 39265U 13055A   23239.89516111  .00022576  00000+0  53381-3 0  9994
2 39265  80.9610 159.4369 0562418  90.7369 275.8272 14.53922073515390
ZACUBE-1 (TSHEPISOSAT)  
1 39417U 13066B   23239.84713953  .00004694  00000+0  53454-3 0  9995
2 39417  97.6906 199.0465 0055854  53.1093 307.5223 14.85507450527831
CINEMA-3 (KHUSAT-2)     
1 39426U 13066L   23240.02714848  .00001706  00000+0  26081-3 0  9998
2 39426  97.8271 167.3423 0098738 276.5891  82.4084 14.71835154523712
TRITON-1                
1 39427U 13066M   23240.33134636  .00003164  00000+0  47529-3 0  9994
2 39427  97.8323 163.4856 0105871 307.0365  52.1193 14.71480125523158
DELFI-N3XT              
1 39428U 13066N   23239.77465524  .00006116  00000+0  86656-3 0  9998
2 39428  97.8299 162.0945 0108094 320.1279  39.2024 14.73412435522671
GOMX-1                  
1 39430U 13066Q   23240.39358114  .00001994  00000+0  34865-3 0  9991
2 39430  97.7696 127.3079 0146319 104.6797 257.0676 14.62116480520083
BRITE-PL1 (LEM)         
1 39431U 13066R   23240.05726917  .00000481  00000+0  11122-3 0  9996
2 39431  97.6818  59.4019 0198457 314.9331  43.5909 14.48096854515737
ICUBE-1                 
1 39432U 13066S   23239.92815946  .00005612  00000+0  49711-3 0  9998
2 39432  97.4894 227.6847 0026404 238.7676 121.0958 14.96359855531072
HUMSAT-D                
1 39433U 13066T   23239.94051313  .00008238  00000+0  65517-3 0  9990
2 39433  97.4575 235.8103 0022093 198.0085 162.0359 15.00474438531696
VELOX-PII               
1 39438U 13066Y   23239.85521303  .00002790  00000+0  34928-3 0  9995
2 39438  97.7462 190.8491 0067834 113.5194 247.3165 14.81420617525552
FIRST-MOVE              
1 39439U 13066Z   23239.86562103  .00010025  00000+0  99134-3 0  9990
2 39439  97.6850 203.4565 0056768  41.6220 318.9298 14.90870259526904
CUBEBUG-2 (LO-74)       
1 39440U 13066AA  23239.84970925  .00002771  00000+0  35669-3 0  9997
2 39440  97.7754 186.3005 0075438 152.8109 207.7085 14.79899020524758
NEE-02 KRYSAOR          
1 39441U 13066AB  23240.33120327  .00001745  00000+0  23813-3 0  9995
2 39441  97.7868 183.4666 0077915 168.8468 191.4493 14.77791249525668
FUNCUBE-1 (AO-73)       
1 39444U 13066AE  23239.85968800  .00005737  00000+0  62433-3 0  9995
2 39444  97.6769 201.6727 0053671  38.2076 322.2925 14.87351303526297
HINCUBE                 
1 39445U 13066AF  23239.84398829  .00006107  00000+0  66861-3 0  9994
2 39445  97.6782 201.4057 0053895  40.9625 319.5621 14.87070757526221
UWE-3                   
1 39446U 13066AG  23239.84914466  .00003301  00000+0  40145-3 0  9996
2 39446  97.7392 192.4196 0066698 104.2867 256.5766 14.82539027525044
AIST-1 (RS-41)          
1 39492U 13078C   23240.37028508  .00001949  00000+0  19913-3 0  9998
2 39492  82.4207 178.1353 0020837  96.0635 264.2958 14.89937146524794
SPROUT                  
1 39770U 14029E   23240.35715603  .00022294  00000+0  15533-2 0  9990
2 39770  97.9937   9.9336 0006030  72.8239 287.3647 15.05428762503007
UNISAT-6                
1 40012U 14033C   23239.80285449  .00003193  00000+0  44693-3 0  9991
2 40012  97.6782  50.3664 0055144 182.3201 177.7762 14.77177190494343
BUGSAT-1 (TITA)         
1 40014U 14033E   23239.87898693  .00005011  00000+0  40171-3 0  9999
2 40014  98.1352 262.0515 0035522  35.4886 324.8689 15.00119135501463
DUCHIFAT-1              
1 40021U 14033M   23239.87005574  .00008774  00000+0  72581-3 0  9994
2 40021  98.0657 206.2065 0013312  45.5146 314.7162 14.99091684499928
NANOSATC-BR1            
1 40024U 14033Q   23239.87053080  .00006533  00000+0  57444-3 0  9994
2 40024  98.0318 196.8559 0011785  50.4265 309.7995 14.96839102499139
QB50P1                  
1 40025U 14033R   23239.85242374  .00005241  00000+0  48877-3 0  9994
2 40025  97.9994 187.9407 0012547  61.9393 298.3094 14.94615807498849
DTUSAT-2                
1 40030U 14033W   23239.77321850  .00005078  00000+0  48434-3 0  9995
2 40030  97.9690 181.2691 0012208  60.0156 300.2273 14.93736616498686
QB50P2                  
1 40032U 14033Y   23239.81561780  .00004250  00000+0  40623-3 0  9993
2 40032  97.9691 181.3298 0012289  60.3785 299.8657 14.93749668498661
POLYITAN-1              
1 40042U 14033AJ  23239.80991661  .00007829  00000+0  70746-3 0  9992
2 40042  98.0113 189.9922 0014479  55.2153 305.0427 14.95672110498749
TIGRISAT                
1 40043U 14033AK  23239.47037369  .00002607  00000+0  36859-3 0  9998
2 40043  97.6703  50.9278 0057377 180.8631 179.2490 14.76814838493932
AISAT                   
1 40054U 14034B   23239.87032286  .00004641  00000+0  56270-3 0  9997
2 40054  98.3653  75.4547 0011082   1.0241 359.0992 14.84086445494098
CANX-4                  
1 40055U 14034C   23240.45829565  .00001339  00000+0  19876-3 0  9990
2 40055  98.3947  58.2423 0014714  50.7122 309.5390 14.76750908493219
CANX-5                  
1 40056U 14034D   23240.05836623  .00001355  00000+0  20099-3 0  9997
2 40056  98.3949  57.8164 0014728  52.1144 308.1394 14.76754520493150
VELOX-I                 
1 40057U 14034E   23240.36800668  .00003723  00000+0  47067-3 0  9997
2 40057  98.3696  76.6901 0010195  17.5031 342.6531 14.82480585494120
METEOR-M 2              
1 40069U 14037A   23240.45445342  .00000105  00000+0  67642-4 0  9990
2 40069  98.4263 243.0788 0006736 125.0727 235.1084 14.20806876473910
DX1                     
1 40071U 14037C   23240.44804491  .00001546  00000+0  19633-3 0  9992
2 40071  98.3500 134.7441 0008117   2.6371 357.4882 14.83226731494077
UKUBE-1                 
1 40074U 14037F   23240.30711496  .00004740  00000+0  51042-3 0  9991
2 40074  98.3377 148.5897 0003054 340.1263  19.9833 14.88978536494983
GRIFEX                  
1 40379U 15003D   23240.38247909  .00057699  00000+0  10286-2 0  9999
2 40379  99.0779 194.9020 0071499  24.0619 336.3938 15.47038204474524
CP10 (EXOCUBE)          
1 40380U 15003E   23240.13518085  .00034664  00000+0  85836-3 0  9991
2 40380  99.0826 183.1601 0092250  60.7159 300.3260 15.35983752473766
DEORBITSAIL             
1 40719U 15032E   23239.59238900  .00004751  00000+0  60121-3 0  9996
2 40719  97.7256 107.9395 0015551  30.3703 329.8408 14.82182581438397
XW-2C                   
1 40906U 15049H   23240.41904168  .00012097  00000+0  44068-3 0  9995
2 40906  97.4944 247.8895 0008782 264.1382  95.8857 15.28312636439423
XW-2D                   
1 40907U 15049J   23240.40201900  .00015033  00000+0  50877-3 0  9997
2 40907  97.4921 248.6217 0007809 252.8736 107.1650 15.30672381439520
LILACSAT-2              
1 40908U 15049K   23240.43263778  .00006118  00000+0  28160-3 0  9996
2 40908  97.5271 243.3349 0011794 302.4748  57.5346 15.20631456438774
XW-2E                   
1 40909U 15049L   23240.40522648  .00035993  00000+0  80648-3 0  9990
2 40909  97.4506 255.7239 0007144 196.6906 163.4107 15.43325477440260
XW-2F                   
1 40910U 15049M   23240.30511304  .00033990  00000+0  78067-3 0  9995
2 40910  97.4602 254.8752 0007630 202.1636 157.9282 15.42594141439986
XW-2B                   
1 40911U 15049N   23240.40938027  .00014700  00000+0  50156-3 0  9999
2 40911  97.4899 249.0191 0007775 255.0294 105.0086 15.30415247439404
KAITUO 1B               
1 40912U 15049P   23240.32399026  .00051339  00000+0  89286-3 0  9996
2 40912  97.4127 259.8549 0009523 158.7513 201.4136 15.50590227440763
LAPAN-A2                
1 40931U 15052B   23240.19412957  .00001265  00000+0  85225-4 0  9998
2 40931   6.0001 292.4787 0013535 236.3340 123.5496 14.77329658428010
LQSAT                   
1 40958U 15057A   23240.40827249  .00000706  00000+0  11423-3 0  9997
2 40958  97.6984 270.7582 0017555 355.9427   4.1637 14.74042377424325
GALASSIA                
1 41170U 15077E   23240.08463631  .00066685  00000+0  12126-2 0  9999
2 41170  14.9856  41.5512 0007277  18.7509 341.3084 15.47619825427340
VELOX-II                
1 41171U 15077F   23240.42307450  .00023668  00000+0  74534-3 0  9990
2 41171  14.9895 152.5539 0004950 142.5180 217.5489 15.30548986426334
CHUBUSAT-2              
1 41338U 16012B   23240.33577757  .00003829  00000+0  25991-3 0  9994
2 41338  31.0021 116.3441 0011830 178.9572 181.1091 15.04575789413257
CHUBUSAT-3              
1 41339U 16012C   23240.33866425  .00003391  00000+0  23071-3 0  9999
2 41339  31.0087 113.5908 0011770 186.1346 173.9148 15.04379068413243
HORYU-4                 
1 41340U 16012D   23239.85487695  .00007325  00000+0  44623-3 0  9991
2 41340  31.0034  81.9910 0011039 244.2706 115.6792 15.08958327413559
OUFTI-1                 
1 41458U 16025C   23240.06039166  .00042393  00000+0  95961-3 0  9991
2 41458  98.1752  91.8274 0088700 197.8019 162.0111 15.38877857404082
E-ST@R-II               
1 41459U 16025D   23240.37713048  .00034442  00000+0  88431-3 0  9994
2 41459  98.1790  89.2317 0097181 206.2056 153.4250 15.34451332403958
AAUSAT 4                
1 41460U 16025E   23240.29517803  .00802887  27470-3  22326-2 0  9998
2 41460  98.1357 106.1193 0025166 150.3465 209.9240 15.93196517405085
AIST-2D (RS-48)         
1 41465U 16026B   23240.45678548  .00028716  00000+0  33179-3 0  9992
2 41465  96.9859 110.6299 0004860 343.8404  16.2699 15.61840837411237
NUSAT-1 (FRESCO)        
1 41557U 16033B   23240.44726746  .00128680  00000+0  93893-3 0  9995
2 41557  97.3876 351.8622 0006826 229.0373 131.0301 15.72853601404936
NUSAT-2 (BATATA)        
1 41558U 16033C   23240.43813424  .00201443  00000+0  10196-2 0  9998
2 41558  97.4157   0.8600 0007065 230.6875 129.3767 15.80972807405316
CARTOSAT-2C             
1 41599U 16040A   23240.40391640  .00005430  00000+0  26033-3 0  9995
2 41599  97.4310 299.5270 0014287  98.7150 261.5704 15.19227761398275
